#cP2013  2 23  0  0  0.00000000      96 ORBIT IGb08 HLM  IGS
## 1728 518400.00000000   900.00000000 56346 0.0000000000000
+   32   G01G02G03G04G05G06G07G08G09G10G11G12G13G14G15G16G17
+        G18G19G20G21G22G23G24G25G26G27G28G29G30G31G32  0  0
+          0  0  0  0  0  0  0  0  0  0  0  0  0  0  0  0  0
+          0  0  0  0  0  0  0  0  0  0  0  0  0  0  0  0  0
+          0  0  0  0  0  0  0  0  0  0  0  0  0  0  0  0  0
++         2  2  2  2  2  2  2  3  3  2  2  3  2  2  3  2  2
++         2  2  2  2  2  2  5  2  2  0  2  2  2  2  2  0  0
++         0  0  0  0  0  0  0  0  0  0  0  0  0  0  0  0  0
++         0  0  0  0  0  0  0  0  0  0  0  0  0  0  0  0  0
++         0  0  0  0  0  0  0  0  0  0  0  0  0  0  0  0  0
%c G  cc GPS ccc cccc cccc cccc cccc ccccc ccccc ccccc ccccc
%c cc cc ccc ccc cccc cccc cccc cccc ccccc ccccc ccccc ccccc
%f  1.2500000  1.025000000  0.00000000000  0.000000000000000
%f  0.0000000  0.000000000  0.00000000000  0.000000000000000
%i    0    0    0    0      0      0      0      0         0
%i    0    0    0    0      0      0      0      0         0
/* FINAL ORBIT COMBINATION FROM WEIGHTED AVERAGE OF:        
/* cod emr esa gfz grg jpl mit ngs sio                      
/* REFERENCED TO IGS TIME (IGST) AND TO WEIGHTED MEAN POLE: 
/* PCV:IGS08_1722 OL/AL:FES2004  NONE     Y  ORB:CMB CLK:CMB
*  2013  2 23  0  0  0.00000000
PG01 -17452.652427 -13688.853191 -14684.885191      2.456368 12  8 11 107       
PG02  -5808.117898  14876.011723  21357.105548    419.646520  7  9  6 123       
PG03   6101.332817 -23791.365532 -10314.602545    171.980641  8  6  3 127       
PG04 -19881.623066   7989.013718  15596.164181    142.495567  8 11  4 119       
PG05   1096.949238  24488.692540  10011.724910   -384.992853  7  8  7 125       
PG06  12502.980659 -22655.664469  -5004.689020    340.377843  8  6  7 121       
PG07 -25961.517912  -6199.260650   1248.141738    183.736594  9  9  9 134       
PG08 -24952.900100   -924.380884  -9773.135376      4.772435 14  8 11 116       
PG09  -2904.749773  14654.525598 -22496.163071    222.501394 15  9 10 147       
PG10 -11559.891466  11937.486803  20344.515840    -70.865642  8  8  7 137       
PG11 -11619.959752 -14602.628476 -19412.196933   -356.130269  8  9  9 111       
PG12  11575.200173  23291.709361   5875.602353    119.325125 10 10 10 155       
PG13 -15838.898097  -4045.406477  20817.295336    142.686113  9 10  5 103       
PG14  21193.113108 -13274.204232  -8544.780861    220.645496  8  9 11 142       
PG15   2519.586360  18565.565139 -18755.141535   -109.274235 12  8  9 139       
PG16    594.948209 -23903.870240  11181.511369   -252.467426 10  4  7 125       
PG17 -20567.011348  14845.073230  -7236.502714     46.949942 12  6  9 140       
PG18  17174.184357   5343.407315 -19259.523518    240.738331  9 11  8 124       
PG19   2078.894123 -19418.834373 -17886.085090   -350.907084  9  7  4 138       
PG20 -14196.337837 -21443.537729   6620.881616     85.283774  7 11 11 136       
PG21  26511.472275   3550.018741  -1869.536470   -282.232632  6  7  8 136       
PG22  13779.238606  -8347.576135 -20918.910606    159.232209 10 11  8 104       
PG23  -9664.870100 -12087.070054  21617.213864    111.302896  9  9  5 132       
PG24  14122.534589  14664.956196 -17079.000488     -1.528688 17 18 15 141       
PG25  16284.238586  14489.285976  15200.737284     72.441275  8  4  2 121       
PG26 -10122.595002  21386.719550 -12332.868235    -91.268057 10  7  7 136       
PG27  10463.374049 -12625.429988  20711.372191 999999.999999
PG28 -14112.957769   3326.362804 -21674.716392    235.100957 11  9 10 151       
PG29  16212.731464   3728.060069  20751.355495    410.454714  7  8  9 118       
PG30   6097.772118 -17524.782831  18660.810852   -219.819716 10  4  7 151       
PG31  16549.501815  -9398.714310  18822.660168    303.644603 10  6  7 109       
PG32  -7185.389175 -25860.464725    678.028819   -537.823591  9  8  8 144       
*  2013  2 23  0 15  0.00000000
PG01 -15659.402143 -13590.660362 -16660.793528      2.458959 12  8 10 113       
PG02  -8165.997062  14483.004926  20798.343459    419.647949  7  9  5 119       
PG03   6867.064521 -24480.010433  -7764.073543    171.986242  7  6  3 116       
PG04 -21537.165202   7516.542070  13560.701971    142.505058  7 11  3 124       
PG05    383.454585  23377.337213  12434.354928   -384.994147  7  7  6 121       
PG06  13025.274463 -22812.279410  -2210.812909    340.364235  8  5  7 109       
PG07 -25635.823791  -6334.568934   4095.648130    183.740522  9  9  9 119       
PG08 -25856.129605  -1263.592527  -7093.182215      4.772173 14  8 11 125       
PG09  -5316.356668  14290.277301 -22288.514754    222.502916 14  9 10 130       
PG10 -12492.162378   9682.150350  21009.674419    -70.867608  8  8  6 144       
PG11  -9448.502193 -15028.992514 -20240.291561   -356.133846  8  9  8 103       
PG12  11582.924420  23829.372494   3048.503401    119.327092 10  9 10 150       
PG13 -14163.374836  -5830.125870  21572.216877    142.683289  9 10  4 101       
PG14  20562.281984 -12287.310560 -11128.017096    220.645583  7  9 10 131       
PG15   1127.990125  20105.183072 -17216.206983   -109.275405 12  8  9 139       
PG16   1219.764081 -22608.547129  13594.952998   -252.467623  9  5  7 116       
PG17 -20090.226349  13919.538572  -9880.910954     46.946475 12  6  9 143       
PG18  17828.219930   7454.148942 -17978.104164    240.740224  9 11  8 137       
PG19   3554.685583 -20697.405556 -16086.795757   -350.909992  9  6  4 113       
PG20 -14149.591322 -22150.099791   3923.333811     85.285183  8 11 11 141       
PG21  26577.745012   3859.132569    895.916561   -282.235099  6  7  8 107       
PG22  14687.880500  -6064.881536 -21097.068878    159.233472 10 11  7 103       
PG23  -8070.035626 -13932.972521  21119.682651    111.299553  9  9  5 139       
PG24  12077.338784  14516.994835 -18694.762180     -1.528660 17 17 14 127       
PG25  16727.760846  16050.673601  13004.960049     72.444005  7  5  3 143       
PG26 -11079.232485  22116.744969  -9807.235740    -91.255282  9  6  8 129       
PG27  11393.083294 -10366.161164  21472.689433 999999.999999
PG28 -14907.749541    866.122145 -21402.529835    235.103843 11  8  9 144       
PG29  14669.869657   5572.649776  21479.031030    410.457955  7  7  8  88       
PG30   7240.166434 -15553.239861  19930.980564   -219.812914  9  4  7 147       
PG31  18513.684569  -8955.290192  17141.236303    303.645796  9  5  7 114       
PG32  -6920.196734 -25837.100117  -2123.227135   -537.826375  8  7  8 125       
*  2013  2 23  0 30  0.00000000
PG01 -13656.900611 -13567.259224 -18351.238529      2.461407 11  7 10 116       
PG02 -10463.070979  14210.618723  19884.402887    419.649521  7  9  4 116       
PG03   7468.585766 -24943.110012  -5080.318632    171.990430  7  6  3 120       
PG04 -22968.516348   7149.420494  11291.239205    142.514924  7 11  3 120       
PG05   -494.372209  22064.717727  14641.078047   -384.995798  7  7  4 118       
PG06  13369.699376 -22721.953396    621.986550    340.351247  8  4  7 110       
PG07 -25003.303866  -6452.916319   6873.934664    183.744659  8  8  9 121       
PG08 -26475.841016  -1487.060481  -4294.910425      4.772493 13  8 11 114       
PG09  -7702.197173  14068.560199 -21715.937288    222.504919 14 10 10 113       
PG10 -13552.724668   7427.446874  21302.132053    -70.870862  8  8  6 142       
PG11  -7224.327108 -15560.267185 -20733.933049   -356.137001  7  8  7 106       
PG12  11494.427160  24069.261118    169.575036    119.328850 10  8 10 151       
PG13 -12545.709665  -7754.734561  21951.587026    142.680838  8 10  4 103       
PG14  19806.019869 -11046.831179 -13516.499972    220.645855  7  9 10 122       
PG15    -81.963331  21553.236830 -15378.768992   -109.276548 12  8  9 135       
PG16   2012.258448 -21107.371802  15770.421010   -252.467898  9  5  6 112       
PG17 -19484.389223  12737.471928 -12351.416135     46.943015 11  7  9 141       
PG18  18511.135318   9378.262747 -16381.413760    240.741811  9 11  8 130       
PG19   4821.716452 -21884.349911 -14007.342829   -350.912887  9  5  5 107       
PG20 -13995.240795 -22584.107113   1158.353713     85.286398  8 10 11 132       
PG21  26354.223555   4130.990961   3646.526251   -282.237278  7  7  8 104       
PG22  15699.435844  -3828.223405 -20906.093719    159.234154 10 11  6  72       
PG23  -6614.837127 -15799.139791  20258.638677    111.295942  9  8  5 134       
PG24   9862.950417  14461.674746 -19989.270652     -1.529972 18 17 14 128       
PG25  17143.631419  17348.724693  10585.896945     72.446713  7  6  4 138       
PG26 -11809.039793  22673.767403  -7113.813730    -91.242458  9  5  8 117       
PG27  12469.836271  -8102.038971  21858.898011 999999.999999
PG28 -15812.819965  -1494.425627 -20742.184291    235.106949 11  8  8 137       
PG29  13189.367344   7544.356511  21838.814678    410.461218  7  7  7  90       
PG30   8547.515784 -13533.584952  20847.842966   -219.806163  9  3  6 149       
PG31  20295.530730  -8645.935179  15171.782691    303.647507  8  5  6 101       
PG32  -6547.715520 -25534.913778  -4889.018177   -537.829104  8  7  8 116       
EOF
